CUTE-1 (CO-55)          
1 27844U 03031E   26108.95785611  .00000205  00000+0  10756-3 0  9999
2 27844  98.6763 118.2581 0009574   5.2865 354.8413 14.24297878183241
CUBESAT XI-IV (CO-57)   
1 27848U 03031J   26108.98700041  .00000158  00000+0  88419-4 0  9999
2 27848  98.6795 118.0471 0009852  23.0648 337.0971 14.23588191182951
CUBESAT XI-V            
1 28895U 05043F   26109.21813171  .00000989  00000+0  16405-3 0  9990
2 28895  98.2911 263.6306 0014703  37.3755 322.8471 14.72472437 93072
CUTE-1.7+APD II (CO-65) 
1 32785U 08021C   26109.23861881  .00004297  00000+0  27675-3 0  9992
2 32785  97.8250  89.4702 0007719 221.2246 138.8399 15.08880219976309
CANX-2                  
1 32790U 08021H   26109.19714806  .00002932  00000+0  21004-3 0  9991
2 32790  97.8619  87.8625 0008603 237.6043 122.4351 15.05191675975932
SEEDS II (CO-66)        
1 32791U 08021J   26108.94781788  .00016023  00000+0  54197-3 0  9992
2 32791  97.7528 104.1161 0004474 129.2597 230.9040 15.30703155978226
SWISSCUBE               
1 35932U 09051B   26109.19047954  .00000728  00000+0  15380-3 0  9990
2 35932  98.4070  16.0472 0007770  43.9950 316.1868 14.62363100880536
BEESAT-1                
1 35933U 09051C   26109.16958309  .00000608  00000+0  13207-3 0  9996
2 35933  98.3998  15.7836 0006413  57.6454 302.5366 14.61620321880564
ITUPSAT1                
1 35935U 09051E   26109.17748798  .00000565  00000+0  12689-3 0  9993
2 35935  98.4085  15.0454 0008707  65.3905 294.8201 14.60348211880125
TISAT 1                 
1 36799U 10035E   26109.27737667  .00018273  00000+0  64204-3 0  9995
2 36799  98.0692  50.7249 0004654  91.8063 268.3708 15.29440233858696
AEROCUBE 4.5A           
1 38767U 12048K   26109.07384434  .00125928  00000+0  96259-3 0  9997
2 38767  64.6335 238.5481 0028629 212.0301 147.9111 15.70992060363316
STRAND-1                
1 39090U 13009E   26109.22491536  .00000192  00000+0  78882-4 0  9992
2 39090  98.3911 290.9136 0009558  52.7620 307.4438 14.37127377688590
BRITE-AUSTRIA           
1 39091U 13009F   26109.07326721  .00000113  00000+0  52890-4 0  9993
2 39091  98.3982 289.9754 0011218  60.4701 299.7603 14.36517641688565
NEE-01 PEGASO           
1 39151U 13018B   26108.36979129  .00001443  00000+0  14325-3 0  9994
2 39151  98.1132 250.5860 0012625   7.0797 353.0598 14.93362775701779
POPACS 2                
1 39269U 13055E   26109.23555671  .00018696  00000+0  31913-3 0  9994
2 39269  80.9947 211.5965 0423372  23.2404 338.7336 14.89691643654439
POPACS 3                
1 39270U 13055F   26108.92396345  .00006572  00000+0  15962-3 0  9998
2 39270  80.9997 293.3868 0555777 250.2884 103.7567 14.54729864629937
ZACUBE-1 (TSHEPISOSAT)  
1 39417U 13066B   26109.14142770  .00003387  00000+0  26687-3 0  9996
2 39417  97.8134  71.1640 0044770  89.5543 271.0811 15.00688677671870
WNISAT-1                
1 39423U 13066H   26108.84918185  .00000497  00000+0  98472-4 0  9991
2 39423  97.7120 262.2457 0164427  59.1259 302.5997 14.57989383658081
TRITON-1                
1 39427U 13066M   26109.26838630  .00001688  00000+0  20724-3 0  9995
2 39427  97.8286  20.4225 0092060  66.6699 294.4168 14.81410500665365
GOMX-1                  
1 39430U 13066Q   26109.27977660  .00000789  00000+0  12624-3 0  9998
2 39430  97.6527 313.4503 0127507 266.7718  91.8894 14.69239383661263
CUBEBUG-2 (LO-74)       
1 39440U 13066AA  26109.10604877  .00001832  00000+0  17515-3 0  9992
2 39440  97.8868  57.8718 0056833 222.2027 137.4811 14.93350292668177
NEE-02 KRYSAOR          
1 39441U 13066AB  26109.24258764  .00001307  00000+0  14911-3 0  9992
2 39441  97.8863  48.9001 0064803 262.9722  96.4120 14.86406212667440
FUNCUBE-1 (AO-73)       
1 39444U 13066AE  26109.24233680  .00007406  00000+0  46927-3 0  9993
2 39444  97.8250  79.5096 0038469  46.7073 313.7353 15.08634976670771
UWE-3                   
1 39446U 13066AG  26108.85127889  .00002110  00000+0  18630-3 0  9991
2 39446  97.8662  64.5682 0049810 155.7852 204.5726 14.96546364668703
BRITE-CA1 (TORONTO)     
1 40020U 14033L   26108.78866074  .00000722  00000+0  11582-3 0  9990
2 40020  97.9644 238.8465 0080076 106.9077 254.0929 14.72583323633476
DUCHIFAT-1              
1 40021U 14033M   26109.11222489  .00061001  00000+0  90385-3 0  9990
2 40021  98.0541 160.4650 0003304 263.0735  97.0142 15.55057271646540
NANOSATC-BR1            
1 40024U 14033Q   26108.97115422  .00014699  00000+0  51511-3 0  9993
2 40024  98.0774 136.1877 0004513  54.7933 305.3728 15.29579713644926
QB50P1                  
1 40025U 14033R   26109.27740637  .00007569  00000+0  38281-3 0  9997
2 40025  98.0994 116.3319 0010616  72.4136 287.8255 15.17314309644097
QB50P2                  
1 40032U 14033Y   26108.91184193  .00006458  00000+0  35577-3 0  9995
2 40032  98.0754 102.1430 0008290  30.5913 329.5799 15.14371305643697
PERSEUS-M2              
1 40037U 14033AD  26109.24729060  .00000454  00000+0  46702-4 0  9998
2 40037  97.9921  58.6143 0012643 130.2159 230.0169 14.95317904641978
PERSEUS-M1              
1 40039U 14033AF  26109.09091960  .00000816  00000+0  79256-4 0  9996
2 40039  97.9606  52.2779 0012622 128.9373 231.2974 14.95428044641801
POLYITAN-1              
1 40042U 14033AJ  26108.94952169  .00016988  00000+0  56524-3 0  9999
2 40042  98.0993 129.6934 0007059  11.5454 348.5946 15.31216720644523
TIGRISAT                
1 40043U 14033AK  26108.88862547  .00001346  00000+0  16141-3 0  9996
2 40043  97.7751 260.2946 0048084 269.0463  90.5242 14.84908105636829
AEROCUBE 6A             
1 40045U 14033AM  26108.89839792  .00004583  00000+0  39343-3 0  9990
2 40045  97.7193 276.5247 0038202 212.2542 147.6343 14.97408741637747
AEROCUBE 6B             
1 40046U 14033AN  26108.89086046  .00005824  00000+0  48099-3 0  9994
2 40046  97.7193 276.1875 0036613 202.5913 157.3700 14.98832607637871
CANX-4                  
1 40055U 14034C   26109.11039134  .00000638  00000+0  89406-4 0  9993
2 40055  98.3204 342.2332 0012338 195.5978 164.4855 14.81155115635786
CANX-5                  
1 40056U 14034D   26109.10950485  .00000640  00000+0  89641-4 0  9998
2 40056  98.3207 342.2723 0012326 195.8101 164.2727 14.81172077626593
UKUBE-1                 
1 40074U 14037F   26109.24470101  .00007230  00000+0  41832-3 0  9999
2 40074  98.4249 106.3720 0002414  55.3646 304.7809 15.12606868639644
BRITE-PL2 (HEWELIUSZ)   
1 40119U 14049B   26109.25257683  .00001662  00000+0  15979-3 0  9997
2 40119  97.9024 220.8312 0012832 308.4519  51.5548 14.94371169632646
AEROCUBE 5C             
1 40965U 15058B   26109.09031636  .00002006  00000+0  18732-3 0  9990
2 40965  64.7653  86.3860 0129578  86.4815 275.1107 14.91097673356848
AEROCUBE 7              
1 40966U 15058C   26109.18605575  .00003450  00000+0  28539-3 0  9990
2 40966  64.7623  69.5497 0119477  85.2454 276.2292 14.95229697357135
FOX-1A (AO-85)          
1 40967U 15058D   26109.25263298  .00001985  00000+0  18844-3 0  9990
2 40967  64.7728 102.0808 0128455  79.7134 281.8432 14.90601329104780
SINOD-D 1               
1 40968U 15058E   26108.23467317  .00003065  00000+0  25563-3 0  9993
2 40968  64.7740  86.5855 0116905  77.0303 284.3836 14.95389076107695
SNAP-3 ALICE            
1 40970U 15058G   26108.98322640  .00071458  00000+0  12413-2 0  9997
2 40970  64.7539 306.8250 0031541  50.7204 309.6727 15.49850195107685
LMRST-SAT               
1 40971U 15058H   26108.58914135  .00001888  00000+0  18093-3 0  9991
2 40971  64.7734 100.3680 0130327  81.9909 279.5967 14.90229165104676
SNAP-3 EDDIE            
1 40972U 15058J   26108.95269354  .00070226  00000+0  11743-2 0  9995
2 40972  64.7459 298.0646 0032267  54.6620 305.7530 15.50899162109815
PROPCUBE 3              
1 40973U 15058K   26109.17136331  .00003025  00000+0  25969-3 0  9998
2 40973  64.7683  76.8606 0122671  83.3546 278.1512 14.93821009105986
BISONSAT                
1 40974U 15058L   26108.97518326  .00011474  00000+0  57828-3 0  9990
2 40974  64.7623   4.8903 0077731  73.5463 287.4185 15.14882868106644
SNAP-3 JIMI             
1 40975U 15058M   26109.26331338  .00005700  00000+0  40164-3 0  9990
2 40975  64.7669  46.1097 0104751  79.6496 281.6409 15.01625400105371
PROPCUBE 1 (FLORA)      
1 40976U 15058N   26109.09392674  .00001539  00000+0  15615-3 0  9991
2 40976  64.7722 118.3314 0129237  84.0752 277.5072 14.88877994107460
SINOD-D 3               
1 40977U 15058P   26109.25947858  .00003000  00000+0  26261-3 0  9994
2 40977  64.7709  99.7631 0117685  81.6095 279.8340 14.93537346105952
HORYU-4                 
1 41340U 16012D   26109.22613865  .00113247  00000+0  83565-3 0  9990
2 41340  30.9882 142.6784 0006101 179.1274 180.9392 15.71512817561478
RAVAN                   
1 41849U 16067B   26108.91747800  .00039450  00000+0  71540-3 0  9999
2 41849  97.9962 351.8875 0005356 187.7383 172.3785 15.49497284518508
CELTEE 1                
1 41850U 16067C   26109.06689418  .00004198  00000+0  20380-3 0  9995
2 41850  98.0753 331.6031 0002445  88.1038 272.0474 15.19091098516902
OPTICUBE 04             
1 41851U 16067D   26109.08363703  .00001414  00000+0  92782-4 0  9998
2 41851  98.0766 318.2722 0014797 321.8271  38.1908 15.09408143516257
AEROCUBE 8D             
1 41852U 16067E   26109.25902382  .00006297  00000+0  26670-3 0  9996
2 41852  98.0761 334.9606 0003224   6.6143 353.5134 15.23564682517093
AEROCUBE 8C             
1 41853U 16067F   26109.09626582  .00006408  00000+0  26948-3 0  9996
2 41853  98.0634 332.0905 0003858 262.6488  97.4309 15.23795932517062
CORVUS BC2              
1 42846U 17042X   26109.26379316  .00002788  00000+0  19553-3 0  9993
2 42846  97.4008 272.9400 0012088 317.9296  42.1002 15.05918508478194
CORVUS BC1              
1 42847U 17042Y   26109.19864057  .00002514  00000+0  17598-3 0  9991
2 42847  97.4040 273.6524 0010587 292.6433  67.3674 15.06093919478218
